[{"OBJECT_NAME":"STARLINK-11316 [DTC]","OBJECT_ID":"2024-204B","EPOCH":"2026-03-09T23:20:18.596544","MEAN_MOTION":15.69690119,"ECCENTRICITY":0.00012991,"INCLINATION":53.1591,"RA_OF_ASC_NODE":354.5328,"ARG_OF_PERICENTER":58.2233,"MEAN_ANOMALY":301.8912,"EPHEMERIS_TYPE":0,"CLASSIFICATION_TYPE":"U","NORAD_CAT_ID":61875,"ELEMENT_SET_NO":999,"REV_AT_EPOCH":7696,"BSTAR":9.28149e-6,"MEAN_MOTION_DOT":5.35e-6,"MEAN_MOTION_DDOT":0},{"OBJECT_NAME":"ANIK C2 R\/B [PAM-D]","OBJECT_ID":"1983-059D","EPOCH":"2026-03-09T11:02:49.300512","MEAN_MOTION":2.71275902,"ECCENTRICITY":0.69094725,"INCLINATION":22.957,"RA_OF_ASC_NODE":177.387,"ARG_OF_PERICENTER":324.7124,"MEAN_ANOMALY":4.9521,"EPHEMERIS_TYPE":0,"CLASSIFICATION_TYPE":"U","NORAD_CAT_ID":14135,"ELEMENT_SET_NO":999,"REV_AT_EPOCH":31877,"BSTAR":0.001147192,"MEAN_MOTION_DOT":1.286e-5,"MEAN_MOTION_DDOT":0}]
